{
"type": "FeatureCollection",
"name": "TW_Quality_data",
"crs": { "type": "name", "properties": { "name": "urn:ogc:def:crs:OGC:1.3:CRS84" } },
"features": [
{ "type": "Feature", "properties": { "Object_Id": 1, "Tubewells": "Habibulah Road", "Latitude": 31.559453, "Longitude": 74.342466, "pH": 8.1, "Turbidity": 0.0, "TDS": 551.8, "Conductivi": 876, "Hardness": 212, "Calcium": 43.2, "Magnesium": 24.9, "Alkalanity": 314, "Chloride": 54, "Bicarbonat": 314 }, "geometry": { "type": "Point", "coordinates": [ 74.342466, 31.559453 ] } },
{ "type": "Feature", "properties": { "Object_Id": 2, "Tubewells": "Garhi Shahu main bazaar", "Latitude": 31.564146, "Longitude": 74.347985, "pH": 8.1, "Turbidity": 0.59, "TDS": 250.1, "Conductivi": 397, "Hardness": 100, "Calcium": 17.6, "Magnesium": 13.4, "Alkalanity": 264, "Chloride": 32, "Bicarbonat": 264 }, "geometry": { "type": "Point", "coordinates": [ 74.347985, 31.564146 ] } },
{ "type": "Feature", "properties": { "Object_Id": 3, "Tubewells": "Basti Saidan Shah", "Latitude": 31.534892, "Longitude": 74.360318, "pH": 8.1, "Turbidity": 0.0, "TDS": 287.2, "Conductivi": 456, "Hardness": 92, "Calcium": 14.4, "Magnesium": 13.4, "Alkalanity": 230, "Chloride": 13, "Bicarbonat": 230 }, "geometry": { "type": "Point", "coordinates": [ 74.360318, 31.534892 ] } },
{ "type": "Feature", "properties": { "Object_Id": 4, "Tubewells": "Garhi Shahu Police Station", "Latitude": 31.560845, "Longitude": 74.350662, "pH": 7.8, "Turbidity": 0.0, "TDS": 267.1, "Conductivi": 424, "Hardness": 70, "Calcium": 16.0, "Magnesium": 7.2, "Alkalanity": 156, "Chloride": 11, "Bicarbonat": 156 }, "geometry": { "type": "Point", "coordinates": [ 74.350662, 31.560845 ] } },
{ "type": "Feature", "properties": { "Object_Id": 5, "Tubewells": "Rehmania Park", "Latitude": 31.540962, "Longitude": 74.326017, "pH": 8.0, "Turbidity": 0.35, "TDS": 308.0, "Conductivi": 489, "Hardness": 160, "Calcium": 40.0, "Magnesium": 14.4, "Alkalanity": 238, "Chloride": 22, "Bicarbonat": 238 }, "geometry": { "type": "Point", "coordinates": [ 74.326017, 31.540962 ] } },
{ "type": "Feature", "properties": { "Object_Id": 6, "Tubewells": "Awa Pahari Queens Rd Mozang", "Latitude": 31.551073, "Longitude": 74.318499, "pH": 8.1, "Turbidity": 0.96, "TDS": 495.1, "Conductivi": 786, "Hardness": 238, "Calcium": 60.0, "Magnesium": 21.1, "Alkalanity": 148, "Chloride": 103, "Bicarbonat": 148 }, "geometry": { "type": "Point", "coordinates": [ 74.318499, 31.551073 ] } },
{ "type": "Feature", "properties": { "Object_Id": 7, "Tubewells": "Ayesha Park", "Latitude": 31.534128, "Longitude": 74.332959, "pH": 7.8, "Turbidity": 0.89, "TDS": 430.9, "Conductivi": 684, "Hardness": 254, "Calcium": 53.6, "Magnesium": 28.8, "Alkalanity": 312, "Chloride": 35, "Bicarbonat": 312 }, "geometry": { "type": "Point", "coordinates": [ 74.332959, 31.534128 ] } },
{ "type": "Feature", "properties": { "Object_Id": 8, "Tubewells": "T/W Lytton Road", "Latitude": 31.557055, "Longitude": 74.309823, "pH": 7.8, "Turbidity": 0.0, "TDS": 803.8, "Conductivi": 1276, "Hardness": 352, "Calcium": 83.2, "Magnesium": 34.6, "Alkalanity": 310, "Chloride": 108, "Bicarbonat": 310 }, "geometry": { "type": "Point", "coordinates": [ 74.309823, 31.557055 ] } },
{ "type": "Feature", "properties": { "Object_Id": 9, "Tubewells": "Fazlia Colony", "Latitude": 31.526978, "Longitude": 74.33086, "pH": 8.0, "Turbidity": 0.22, "TDS": 459.2, "Conductivi": 729, "Hardness": 216, "Calcium": 42.4, "Magnesium": 26.4, "Alkalanity": 230, "Chloride": 24, "Bicarbonat": 230 }, "geometry": { "type": "Point", "coordinates": [ 74.33086, 31.526978 ] } },
{ "type": "Feature", "properties": { "Object_Id": 10, "Tubewells": "Nisar Press Gulberg", "Latitude": 31.513981, "Longitude": 74.358087, "pH": 7.8, "Turbidity": 1.57, "TDS": 817.1, "Conductivi": 1297, "Hardness": 256, "Calcium": 45.6, "Magnesium": 34.1, "Alkalanity": 462, "Chloride": 55, "Bicarbonat": 462 }, "geometry": { "type": "Point", "coordinates": [ 74.358087, 31.513981 ] } },
{ "type": "Feature", "properties": { "Object_Id": 11, "Tubewells": "Makkah Colony (New)", "Latitude": 31.49366, "Longitude": 74.357086, "pH": 7.8, "Turbidity": 1.32, "TDS": 492.6, "Conductivi": 782, "Hardness": 150, "Calcium": 27.2, "Magnesium": 19.7, "Alkalanity": 284, "Chloride": 30, "Bicarbonat": 284 }, "geometry": { "type": "Point", "coordinates": [ 74.357086, 31.49366 ] } },
{ "type": "Feature", "properties": { "Object_Id": 12, "Tubewells": "FC Block Gulberg 2", "Latitude": 31.529447, "Longitude": 74.336348, "pH": 8.0, "Turbidity": 0.36, "TDS": 282.2, "Conductivi": 448, "Hardness": 108, "Calcium": 16.8, "Magnesium": 15.8, "Alkalanity": 160, "Chloride": 19, "Bicarbonat": 160 }, "geometry": { "type": "Point", "coordinates": [ 74.336348, 31.529447 ] } },
{ "type": "Feature", "properties": { "Object_Id": 13, "Tubewells": "Zafar Ali Road Gulberg 5", "Latitude": 31.539889, "Longitude": 74.346264, "pH": 8.0, "Turbidity": 0.0, "TDS": 367.9, "Conductivi": 584, "Hardness": 82, "Calcium": 16.0, "Magnesium": 10.1, "Alkalanity": 194, "Chloride": 23, "Bicarbonat": 194 }, "geometry": { "type": "Point", "coordinates": [ 74.346264, 31.539889 ] } },
{ "type": "Feature", "properties": { "Object_Id": 14, "Tubewells": "Ittehad Colony Gulberg 2", "Latitude": 31.502703, "Longitude": 74.35807, "pH": 8.0, "Turbidity": 0.0, "TDS": 583.3, "Conductivi": 799, "Hardness": 170, "Calcium": 31.2, "Magnesium": 22.0, "Alkalanity": 328, "Chloride": 35, "Bicarbonat": 328 }, "geometry": { "type": "Point", "coordinates": [ 74.35807, 31.502703 ] } },
{ "type": "Feature", "properties": { "Object_Id": 15, "Tubewells": "Fareed Colony", "Latitude": 31.44495, "Longitude": 74.340443, "pH": 7.9, "Turbidity": 0.73, "TDS": 714.4, "Conductivi": 1134, "Hardness": 224, "Calcium": 40.8, "Magnesium": 29.3, "Alkalanity": 400, "Chloride": 48, "Bicarbonat": 400 }, "geometry": { "type": "Point", "coordinates": [ 74.340443, 31.44495 ] } },
{ "type": "Feature", "properties": { "Object_Id": 16, "Tubewells": "Sitara Colony", "Latitude": 31.449454, "Longitude": 74.364107, "pH": 7.8, "Turbidity": 2.76, "TDS": 446.7, "Conductivi": 734, "Hardness": 260, "Calcium": 27.8, "Magnesium": 34.5, "Alkalanity": 268, "Chloride": 47, "Bicarbonat": 268 }, "geometry": { "type": "Point", "coordinates": [ 74.364107, 31.449454 ] } },
{ "type": "Feature", "properties": { "Object_Id": 17, "Tubewells": "Daira Mian Address", "Latitude": 31.45318, "Longitude": 74.339674, "pH": 7.8, "Turbidity": 0.0, "TDS": 882.0, "Conductivi": 1400, "Hardness": 214, "Calcium": 36.0, "Magnesium": 29.8, "Alkalanity": 474, "Chloride": 39, "Bicarbonat": 474 }, "geometry": { "type": "Point", "coordinates": [ 74.339674, 31.45318 ] } },
{ "type": "Feature", "properties": { "Object_Id": 18, "Tubewells": "Fazel e Haq Colony", "Latitude": 31.452632, "Longitude": 74.343116, "pH": 7.8, "Turbidity": 0.16, "TDS": 716.9, "Conductivi": 1138, "Hardness": 172, "Calcium": 28.0, "Magnesium": 24.5, "Alkalanity": 404, "Chloride": 30, "Bicarbonat": 404 }, "geometry": { "type": "Point", "coordinates": [ 74.343116, 31.452632 ] } },
{ "type": "Feature", "properties": { "Object_Id": 19, "Tubewells": "General Hospital", "Latitude": 31.456164, "Longitude": 74.351138, "pH": 8.2, "Turbidity": 0.0, "TDS": 479.4, "Conductivi": 761, "Hardness": 102, "Calcium": 21.6, "Magnesium": 11.5, "Alkalanity": 282, "Chloride": 24, "Bicarbonat": 282 }, "geometry": { "type": "Point", "coordinates": [ 74.351138, 31.456164 ] } },
{ "type": "Feature", "properties": { "Object_Id": 20, "Tubewells": "Baba Fareed Colony Press Ground", "Latitude": 31.449948, "Longitude": 74.315892, "pH": 7.8, "Turbidity": 0.0, "TDS": 875.0, "Conductivi": 1389, "Hardness": 184, "Calcium": 24.8, "Magnesium": 29.3, "Alkalanity": 23, "Chloride": 19, "Bicarbonat": 23 }, "geometry": { "type": "Point", "coordinates": [ 74.315892, 31.449948 ] } },
{ "type": "Feature", "properties": { "Object_Id": 21, "Tubewells": "Usman Block", "Latitude": 31.501952, "Longitude": 74.32051, "pH": 7.9, "Turbidity": 2.26, "TDS": 430.9, "Conductivi": 684, "Hardness": 160, "Calcium": 34.4, "Magnesium": 17.8, "Alkalanity": 254, "Chloride": 62, "Bicarbonat": 254 }, "geometry": { "type": "Point", "coordinates": [ 74.32051, 31.501952 ] } },
{ "type": "Feature", "properties": { "Object_Id": 22, "Tubewells": "C-Block Faisal Town", "Latitude": 31.471001, "Longitude": 74.305526, "pH": 8.1, "Turbidity": 0.0, "TDS": 380.5, "Conductivi": 612, "Hardness": 149, "Calcium": 25.0, "Magnesium": 18.0, "Alkalanity": 302, "Chloride": 15, "Bicarbonat": 302 }, "geometry": { "type": "Point", "coordinates": [ 74.305526, 31.471001 ] } },
{ "type": "Feature", "properties": { "Object_Id": 23, "Tubewells": "D-Block Model Town", "Latitude": 31.542488, "Longitude": 74.4088997, "pH": 8.2, "Turbidity": 0.62, "TDS": 287.9, "Conductivi": 457, "Hardness": 80, "Calcium": 16.0, "Magnesium": 9.6, "Alkalanity": 242, "Chloride": 28, "Bicarbonat": 242 }, "geometry": { "type": "Point", "coordinates": [ 74.4088997, 31.542488 ] } },
{ "type": "Feature", "properties": { "Object_Id": 24, "Tubewells": "Sher Shah Block Model Town", "Latitude": 31.497114, "Longitude": 74.318811, "pH": 7.8, "Turbidity": 1.24, "TDS": 332.6, "Conductivi": 528, "Hardness": 156, "Calcium": 31.2, "Magnesium": 18.7, "Alkalanity": 272, "Chloride": 20, "Bicarbonat": 272 }, "geometry": { "type": "Point", "coordinates": [ 74.318811, 31.497114 ] } },
{ "type": "Feature", "properties": { "Object_Id": 25, "Tubewells": "Abu Bakr Block", "Latitude": 31.511125, "Longitude": 74.325081, "pH": 7.9, "Turbidity": 1.22, "TDS": 386.1, "Conductivi": 613, "Hardness": 166, "Calcium": 30.4, "Magnesium": 21.6, "Alkalanity": 320, "Chloride": 25, "Bicarbonat": 320 }, "geometry": { "type": "Point", "coordinates": [ 74.325081, 31.511125 ] } },
{ "type": "Feature", "properties": { "Object_Id": 26, "Tubewells": "N-Block Model Town", "Latitude": 31.478303, "Longitude": 74.311866, "pH": 8.0, "Turbidity": 1.08, "TDS": 582.1, "Conductivi": 924, "Hardness": 240, "Calcium": 39.2, "Magnesium": 23.5, "Alkalanity": 442, "Chloride": 30, "Bicarbonat": 442 }, "geometry": { "type": "Point", "coordinates": [ 74.311866, 31.478303 ] } },
{ "type": "Feature", "properties": { "Object_Id": 27, "Tubewells": "Ali Block", "Latitude": 31.503303, "Longitude": 74.325747, "pH": 8.1, "Turbidity": 0.0, "TDS": 432.1, "Conductivi": 686, "Hardness": 246, "Calcium": 50.4, "Magnesium": 28.8, "Alkalanity": 330, "Chloride": 23, "Bicarbonat": 330 }, "geometry": { "type": "Point", "coordinates": [ 74.325747, 31.503303 ] } },
{ "type": "Feature", "properties": { "Object_Id": 28, "Tubewells": "Nishter Colony Near Tanky", "Latitude": 31.422217, "Longitude": 74.366586, "pH": 7.8, "Turbidity": 0.45, "TDS": 553.1, "Conductivi": 878, "Hardness": 198, "Calcium": 33.6, "Magnesium": 27.3, "Alkalanity": 238, "Chloride": 40, "Bicarbonat": 238 }, "geometry": { "type": "Point", "coordinates": [ 74.366586, 31.422217 ] } },
{ "type": "Feature", "properties": { "Object_Id": 29, "Tubewells": "Nishter Colony near Police Station", "Latitude": 31.421674, "Longitude": 74.361388, "pH": 7.8, "Turbidity": 0.61, "TDS": 636.3, "Conductivi": 1010, "Hardness": 168, "Calcium": 36.8, "Magnesium": 18.2, "Alkalanity": 286, "Chloride": 31, "Bicarbonat": 286 }, "geometry": { "type": "Point", "coordinates": [ 74.361388, 31.421674 ] } },
{ "type": "Feature", "properties": { "Object_Id": 30, "Tubewells": "3-D-1 Green Town", "Latitude": 31.439177, "Longitude": 74.308853, "pH": 8.1, "Turbidity": 0.18, "TDS": 385.5, "Conductivi": 612, "Hardness": 70, "Calcium": 11.2, "Magnesium": 10.0, "Alkalanity": 202, "Chloride": 17, "Bicarbonat": 0 }, "geometry": { "type": "Point", "coordinates": [ 74.308853, 31.439177 ] } },
{ "type": "Feature", "properties": { "Object_Id": 31, "Tubewells": "3-D-2 Green Town", "Latitude": 31.434626, "Longitude": 74.306716, "pH": 8.1, "Turbidity": 0.18, "TDS": 385.5, "Conductivi": 612, "Hardness": 70, "Calcium": 11.2, "Magnesium": 10.0, "Alkalanity": 202, "Chloride": 17, "Bicarbonat": 202 }, "geometry": { "type": "Point", "coordinates": [ 74.306716, 31.434626 ] } },
{ "type": "Feature", "properties": { "Object_Id": 32, "Tubewells": "3-C-1 Township", "Latitude": 31.440535, "Longitude": 74.302182, "pH": 7.8, "Turbidity": 0.69, "TDS": 396.9, "Conductivi": 630, "Hardness": 128, "Calcium": 25.6, "Magnesium": 15.4, "Alkalanity": 324, "Chloride": 27, "Bicarbonat": 324 }, "geometry": { "type": "Point", "coordinates": [ 74.302182, 31.440535 ] } },
{ "type": "Feature", "properties": { "Object_Id": 33, "Tubewells": "1-C-1 Green Town", "Latitude": 31.444535, "Longitude": 74.298526, "pH": 8.0, "Turbidity": 0.0, "TDS": 425.2, "Conductivi": 675, "Hardness": 138, "Calcium": 26.4, "Magnesium": 17.3, "Alkalanity": 320, "Chloride": 34, "Bicarbonat": 320 }, "geometry": { "type": "Point", "coordinates": [ 74.298526, 31.444535 ] } },
{ "type": "Feature", "properties": { "Object_Id": 34, "Tubewells": "R Block Model Town Extension", "Latitude": 31.473867, "Longitude": 74.333745, "pH": 7.8, "Turbidity": 0.94, "TDS": 655.2, "Conductivi": 1040, "Hardness": 210, "Calcium": 35.2, "Magnesium": 29.3, "Alkalanity": 334, "Chloride": 31, "Bicarbonat": 334 }, "geometry": { "type": "Point", "coordinates": [ 74.333745, 31.473867 ] } },
{ "type": "Feature", "properties": { "Object_Id": 35, "Tubewells": "Akbar Shaheed Road", "Latitude": 31.464064, "Longitude": 74.335502, "pH": 8.1, "Turbidity": 0.0, "TDS": 699.3, "Conductivi": 1110, "Hardness": 260, "Calcium": 46.4, "Magnesium": 34.6, "Alkalanity": 460, "Chloride": 65, "Bicarbonat": 460 }, "geometry": { "type": "Point", "coordinates": [ 74.335502, 31.464064 ] } },
{ "type": "Feature", "properties": { "Object_Id": 36, "Tubewells": "Ittefaq Cricket Ground", "Latitude": 31.47486, "Longitude": 74.340092, "pH": 7.8, "Turbidity": 0.32, "TDS": 616.7, "Conductivi": 979, "Hardness": 186, "Calcium": 33.6, "Magnesium": 24.5, "Alkalanity": 356, "Chloride": 40, "Bicarbonat": 356 }, "geometry": { "type": "Point", "coordinates": [ 74.340092, 31.47486 ] } },
{ "type": "Feature", "properties": { "Object_Id": 37, "Tubewells": "Gulam Bhatti Colony", "Latitude": 31.470455, "Longitude": 74.320053, "pH": 8.2, "Turbidity": 0.4, "TDS": 619.2, "Conductivi": 983, "Hardness": 166, "Calcium": 28.8, "Magnesium": 22.6, "Alkalanity": 302, "Chloride": 28, "Bicarbonat": 302 }, "geometry": { "type": "Point", "coordinates": [ 74.320053, 31.470455 ] } },
{ "type": "Feature", "properties": { "Object_Id": 38, "Tubewells": "Zubaida Park", "Latitude": 31.532775, "Longitude": 74.289775, "pH": 8.3, "Turbidity": 0.12, "TDS": 808.2, "Conductivi": 1283, "Hardness": 320, "Calcium": 60.0, "Magnesium": 40.8, "Alkalanity": 304, "Chloride": 161, "Bicarbonat": 304 }, "geometry": { "type": "Point", "coordinates": [ 74.289775, 31.532775 ] } },
{ "type": "Feature", "properties": { "Object_Id": 39, "Tubewells": "Jinnah Colony", "Latitude": 31.537145, "Longitude": 74.295218, "pH": 7.8, "Turbidity": 2.21, "TDS": 618.6, "Conductivi": 982, "Hardness": 186, "Calcium": 35.2, "Magnesium": 23.5, "Alkalanity": 164, "Chloride": 100, "Bicarbonat": 164 }, "geometry": { "type": "Point", "coordinates": [ 74.295218, 31.537145 ] } },
{ "type": "Feature", "properties": { "Object_Id": 40, "Tubewells": "Chah Janney Wala", "Latitude": 31.525983, "Longitude": 74.290352, "pH": 8.0, "Turbidity": 0.87, "TDS": 202.2, "Conductivi": 321, "Hardness": 70, "Calcium": 13.6, "Magnesium": 8.6, "Alkalanity": 136, "Chloride": 25, "Bicarbonat": 136 }, "geometry": { "type": "Point", "coordinates": [ 74.290352, 31.525983 ] } },
{ "type": "Feature", "properties": { "Object_Id": 41, "Tubewells": "Ghulam Nabi park", "Latitude": 31.541591, "Longitude": 74.299466, "pH": 7.8, "Turbidity": 1.8, "TDS": 754.0, "Conductivi": 1198, "Hardness": 268, "Calcium": 48.8, "Magnesium": 35.0, "Alkalanity": 258, "Chloride": 101, "Bicarbonat": 258 }, "geometry": { "type": "Point", "coordinates": [ 74.299466, 31.541591 ] } },
{ "type": "Feature", "properties": { "Object_Id": 42, "Tubewells": "A-Block sabzaazar", "Latitude": 31.523837, "Longitude": 74.274521, "pH": 7.8, "Turbidity": 0.25, "TDS": 366.6, "Conductivi": 581, "Hardness": 222, "Calcium": 40.0, "Magnesium": 29.3, "Alkalanity": 280, "Chloride": 33, "Bicarbonat": 280 }, "geometry": { "type": "Point", "coordinates": [ 74.274521, 31.523837 ] } },
{ "type": "Feature", "properties": { "Object_Id": 43, "Tubewells": "G-block Sabzaazar", "Latitude": 31.521823, "Longitude": 74.268565, "pH": 8.0, "Turbidity": 0.36, "TDS": 231.8, "Conductivi": 368, "Hardness": 98, "Calcium": 21.6, "Magnesium": 10.6, "Alkalanity": 176, "Chloride": 55, "Bicarbonat": 176 }, "geometry": { "type": "Point", "coordinates": [ 74.268565, 31.521823 ] } },
{ "type": "Feature", "properties": { "Object_Id": 44, "Tubewells": "E-Block sabzaazar", "Latitude": 31.527242, "Longitude": 74.262727, "pH": 8.0, "Turbidity": 0.45, "TDS": 137.7, "Conductivi": 218, "Hardness": 120, "Calcium": 20.8, "Magnesium": 16.3, "Alkalanity": 140, "Chloride": 10, "Bicarbonat": 140 }, "geometry": { "type": "Point", "coordinates": [ 74.262727, 31.527242 ] } },
{ "type": "Feature", "properties": { "Object_Id": 45, "Tubewells": "N-Block Sabzaazar", "Latitude": 31.515941, "Longitude": 74.25745, "pH": 7.8, "Turbidity": 1.37, "TDS": 299.2, "Conductivi": 475, "Hardness": 210, "Calcium": 43.2, "Magnesium": 24.5, "Alkalanity": 234, "Chloride": 30, "Bicarbonat": 234 }, "geometry": { "type": "Point", "coordinates": [ 74.25745, 31.515941 ] } },
{ "type": "Feature", "properties": { "Object_Id": 46, "Tubewells": "D-Block Sabzaazar", "Latitude": 31.531873, "Longitude": 74.266154, "pH": 8.0, "Turbidity": 0.43, "TDS": 148.6, "Conductivi": 236, "Hardness": 120, "Calcium": 23.2, "Magnesium": 14.9, "Alkalanity": 140, "Chloride": 10, "Bicarbonat": 140 }, "geometry": { "type": "Point", "coordinates": [ 74.266154, 31.531873 ] } },
{ "type": "Feature", "properties": { "Object_Id": 47, "Tubewells": "B-Block sabzaazar", "Latitude": 31.526773, "Longitude": 74.279228, "pH": 7.8, "Turbidity": 0.45, "TDS": 472.0, "Conductivi": 750, "Hardness": 404, "Calcium": 68.8, "Magnesium": 55.7, "Alkalanity": 590, "Chloride": 67, "Bicarbonat": 590 }, "geometry": { "type": "Point", "coordinates": [ 74.279228, 31.526773 ] } },
{ "type": "Feature", "properties": { "Object_Id": 48, "Tubewells": "K-Block Sabzaazar", "Latitude": 31.519735, "Longitude": 74.259989, "pH": 8.1, "Turbidity": 0.0, "TDS": 239.4, "Conductivi": 380, "Hardness": 130, "Calcium": 26.4, "Magnesium": 15.4, "Alkalanity": 138, "Chloride": 14, "Bicarbonat": 138 }, "geometry": { "type": "Point", "coordinates": [ 74.259989, 31.519735 ] } },
{ "type": "Feature", "properties": { "Object_Id": 49, "Tubewells": "Rasool Park", "Latitude": 31.539971, "Longitude": 74.312776, "pH": 8.3, "Turbidity": 0.0, "TDS": 422.7, "Conductivi": 671, "Hardness": 210, "Calcium": 47.2, "Magnesium": 22.1, "Alkalanity": 126, "Chloride": 105, "Bicarbonat": 126 }, "geometry": { "type": "Point", "coordinates": [ 74.312776, 31.539971 ] } },
{ "type": "Feature", "properties": { "Object_Id": 50, "Tubewells": "T/W Kubra Masjid", "Latitude": 31.53447, "Longitude": 74.309367, "pH": 7.8, "Turbidity": 1.09, "TDS": 495.0, "Conductivi": 786, "Hardness": 212, "Calcium": 44.0, "Magnesium": 24.4, "Alkalanity": 240, "Chloride": 72, "Bicarbonat": 240 }, "geometry": { "type": "Point", "coordinates": [ 74.309367, 31.53447 ] } },
{ "type": "Feature", "properties": { "Object_Id": 51, "Tubewells": "T/W Windsor Park New", "Latitude": 31.53664, "Longitude": 74.318484, "pH": 7.9, "Turbidity": 0.59, "TDS": 909.7, "Conductivi": 1444, "Hardness": 380, "Calcium": 77.6, "Magnesium": 44.6, "Alkalanity": 362, "Chloride": 100, "Bicarbonat": 362 }, "geometry": { "type": "Point", "coordinates": [ 74.318484, 31.53664 ] } },
{ "type": "Feature", "properties": { "Object_Id": 52, "Tubewells": "T/W Shah kamal New", "Latitude": 31.52404, "Longitude": 74.311684, "pH": 8.0, "Turbidity": 0.76, "TDS": 521.0, "Conductivi": 827, "Hardness": 90, "Calcium": 17.6, "Magnesium": 11.4, "Alkalanity": 184, "Chloride": 18, "Bicarbonat": 184 }, "geometry": { "type": "Point", "coordinates": [ 74.311684, 31.52404 ] } },
{ "type": "Feature", "properties": { "Object_Id": 53, "Tubewells": "Rehman Pura", "Latitude": 31.520949, "Longitude": 74.319822, "pH": 8.0, "Turbidity": 0.56, "TDS": 545.5, "Conductivi": 866, "Hardness": 82, "Calcium": 16.8, "Magnesium": 9.6, "Alkalanity": 226, "Chloride": 23, "Bicarbonat": 226 }, "geometry": { "type": "Point", "coordinates": [ 74.319822, 31.520949 ] } },
{ "type": "Feature", "properties": { "Object_Id": 54, "Tubewells": "C-Block New Muslim Town", "Latitude": 31.513699, "Longitude": 74.3122, "pH": 8.0, "Turbidity": 1.35, "TDS": 227.4, "Conductivi": 361, "Hardness": 94, "Calcium": 19.2, "Magnesium": 11.1, "Alkalanity": 204, "Chloride": 29, "Bicarbonat": 204 }, "geometry": { "type": "Point", "coordinates": [ 74.3122, 31.513699 ] } },
{ "type": "Feature", "properties": { "Object_Id": 55, "Tubewells": "Jahanzaib Block", "Latitude": 31.524647, "Longitude": 74.288669, "pH": 7.8, "Turbidity": 0.0, "TDS": 245.7, "Conductivi": 390, "Hardness": 112, "Calcium": 25.6, "Magnesium": 11.5, "Alkalanity": 160, "Chloride": 13, "Bicarbonat": 160 }, "geometry": { "type": "Point", "coordinates": [ 74.288669, 31.524647 ] } },
{ "type": "Feature", "properties": { "Object_Id": 56, "Tubewells": "Huma Block", "Latitude": 31.521638, "Longitude": 74.289624, "pH": 7.8, "Turbidity": 0.0, "TDS": 261.4, "Conductivi": 415, "Hardness": 110, "Calcium": 24.6, "Magnesium": 13.4, "Alkalanity": 180, "Chloride": 34, "Bicarbonat": 180 }, "geometry": { "type": "Point", "coordinates": [ 74.289624, 31.521638 ] } },
{ "type": "Feature", "properties": { "Object_Id": 57, "Tubewells": "Neelum Block", "Latitude": 31.523166, "Longitude": 74.301424, "pH": 7.8, "Turbidity": 0.59, "TDS": 518.4, "Conductivi": 823, "Hardness": 174, "Calcium": 35.2, "Magnesium": 20.6, "Alkalanity": 234, "Chloride": 59, "Bicarbonat": 234 }, "geometry": { "type": "Point", "coordinates": [ 74.301424, 31.523166 ] } },
{ "type": "Feature", "properties": { "Object_Id": 58, "Tubewells": "Clifton Colony", "Latitude": 31.518582, "Longitude": 74.307212, "pH": 8.1, "Turbidity": 0.77, "TDS": 299.8, "Conductivi": 476, "Hardness": 90, "Calcium": 19.2, "Magnesium": 10.0, "Alkalanity": 190, "Chloride": 20, "Bicarbonat": 190 }, "geometry": { "type": "Point", "coordinates": [ 74.307212, 31.518582 ] } },
{ "type": "Feature", "properties": { "Object_Id": 59, "Tubewells": "College Block", "Latitude": 31.511044, "Longitude": 74.297454, "pH": 8.1, "Turbidity": 0.97, "TDS": 292.9, "Conductivi": 465, "Hardness": 90, "Calcium": 18.4, "Magnesium": 10.5, "Alkalanity": 172, "Chloride": 13, "Bicarbonat": 172 }, "geometry": { "type": "Point", "coordinates": [ 74.297454, 31.511044 ] } },
{ "type": "Feature", "properties": { "Object_Id": 60, "Tubewells": "Pak Block", "Latitude": 31.517874, "Longitude": 74.297587, "pH": 8.0, "Turbidity": 1.05, "TDS": 254.5, "Conductivi": 372, "Hardness": 62, "Calcium": 13.6, "Magnesium": 6.7, "Alkalanity": 168, "Chloride": 19, "Bicarbonat": 168 }, "geometry": { "type": "Point", "coordinates": [ 74.297587, 31.517874 ] } },
{ "type": "Feature", "properties": { "Object_Id": 61, "Tubewells": "Karim Block Graveyard", "Latitude": 31.506168, "Longitude": 74.280054, "pH": 7.8, "Turbidity": 1.32, "TDS": 413.8, "Conductivi": 627, "Hardness": 186, "Calcium": 40.8, "Magnesium": 20.2, "Alkalanity": 230, "Chloride": 37, "Bicarbonat": 230 }, "geometry": { "type": "Point", "coordinates": [ 74.280054, 31.506168 ] } },
{ "type": "Feature", "properties": { "Object_Id": 62, "Tubewells": "Chanab Block", "Latitude": 31.520987, "Longitude": 74.296375, "pH": 7.8, "Turbidity": 0.85, "TDS": 284.1, "Conductivi": 376, "Hardness": 78, "Calcium": 16.0, "Magnesium": 9.1, "Alkalanity": 172, "Chloride": 18, "Bicarbonat": 172 }, "geometry": { "type": "Point", "coordinates": [ 74.296375, 31.520987 ] } },
{ "type": "Feature", "properties": { "Object_Id": 63, "Tubewells": "F & V market", "Latitude": 31.496833, "Longitude": 74.266843, "pH": 7.8, "Turbidity": 1.33, "TDS": 601.0, "Conductivi": 954, "Hardness": 246, "Calcium": 56.0, "Magnesium": 25.4, "Alkalanity": 154, "Chloride": 55, "Bicarbonat": 154 }, "geometry": { "type": "Point", "coordinates": [ 74.266843, 31.496833 ] } },
{ "type": "Feature", "properties": { "Object_Id": 64, "Tubewells": "Mehran Block", "Latitude": 31.500497, "Longitude": 74.266639, "pH": 7.8, "Turbidity": 2.74, "TDS": 382.4, "Conductivi": 607, "Hardness": 72, "Calcium": 14.4, "Magnesium": 8.6, "Alkalanity": 134, "Chloride": 22, "Bicarbonat": 134 }, "geometry": { "type": "Point", "coordinates": [ 74.266639, 31.500497 ] } },
{ "type": "Feature", "properties": { "Object_Id": 65, "Tubewells": "Ravi Block", "Latitude": 31.512213, "Longitude": 74.274288, "pH": 8.2, "Turbidity": 1.25, "TDS": 258.3, "Conductivi": 410, "Hardness": 254, "Calcium": 52.0, "Magnesium": 29.7, "Alkalanity": 208, "Chloride": 70, "Bicarbonat": 208 }, "geometry": { "type": "Point", "coordinates": [ 74.274288, 31.512213 ] } },
{ "type": "Feature", "properties": { "Object_Id": 66, "Tubewells": "T/W Sehar Block", "Latitude": 31.580001, "Longitude": 74.378171, "pH": 7.8, "Turbidity": 0.0, "TDS": 504.0, "Conductivi": 800, "Hardness": 238, "Calcium": 44.8, "Magnesium": 30.2, "Alkalanity": 366, "Chloride": 40, "Bicarbonat": 366 }, "geometry": { "type": "Point", "coordinates": [ 74.378171, 31.580001 ] } },
{ "type": "Feature", "properties": { "Object_Id": 67, "Tubewells": "Shah kamal Road", "Latitude": 31.567488, "Longitude": 74.38378, "pH": 8.3, "Turbidity": 0.08, "TDS": 364.1, "Conductivi": 578, "Hardness": 144, "Calcium": 28.8, "Magnesium": 17.3, "Alkalanity": 274, "Chloride": 34, "Bicarbonat": 274 }, "geometry": { "type": "Point", "coordinates": [ 74.38378, 31.567488 ] } },
{ "type": "Feature", "properties": { "Object_Id": 68, "Tubewells": "Muslimabaad", "Latitude": 31.569576, "Longitude": 74.418387, "pH": 7.8, "Turbidity": 0.92, "TDS": 583.6, "Conductivi": 855, "Hardness": 148, "Calcium": 20.8, "Magnesium": 23.0, "Alkalanity": 248, "Chloride": 24, "Bicarbonat": 248 }, "geometry": { "type": "Point", "coordinates": [ 74.418387, 31.569576 ] } },
{ "type": "Feature", "properties": { "Object_Id": 69, "Tubewells": "T/W Suraiya Jabeen Park", "Latitude": 31.580711, "Longitude": 74.369333, "pH": 7.8, "Turbidity": 1.16, "TDS": 477.5, "Conductivi": 758, "Hardness": 208, "Calcium": 44.0, "Magnesium": 23.5, "Alkalanity": 202, "Chloride": 34, "Bicarbonat": 202 }, "geometry": { "type": "Point", "coordinates": [ 74.369333, 31.580711 ] } },
{ "type": "Feature", "properties": { "Object_Id": 70, "Tubewells": "T/W Madulal Hussain", "Latitude": 31.586148, "Longitude": 74.373659, "pH": 8.3, "Turbidity": 0.55, "TDS": 364.0, "Conductivi": 578, "Hardness": 110, "Calcium": 24.8, "Magnesium": 11.5, "Alkalanity": 184, "Chloride": 22, "Bicarbonat": 184 }, "geometry": { "type": "Point", "coordinates": [ 74.373659, 31.586148 ] } },
{ "type": "Feature", "properties": { "Object_Id": 71, "Tubewells": "Deupty Yaqub Colony", "Latitude": 31.591053, "Longitude": 74.374168, "pH": 7.9, "Turbidity": 0.23, "TDS": 292.9, "Conductivi": 465, "Hardness": 136, "Calcium": 27.2, "Magnesium": 16.3, "Alkalanity": 220, "Chloride": 20, "Bicarbonat": 220 }, "geometry": { "type": "Point", "coordinates": [ 74.374168, 31.591053 ] } },
{ "type": "Feature", "properties": { "Object_Id": 72, "Tubewells": "Salamat Pura Takia", "Latitude": 31.581816, "Longitude": 74.415125, "pH": 168.0, "Turbidity": 30.4, "TDS": 22.1, "Conductivi": 320, "Hardness": 20, "Calcium": 0.0, "Magnesium": 0.0, "Alkalanity": 320, "Chloride": 0, "Bicarbonat": 320 }, "geometry": { "type": "Point", "coordinates": [ 74.415125, 31.581816 ] } },
{ "type": "Feature", "properties": { "Object_Id": 73, "Tubewells": "Chah Miran (new)", "Latitude": 31.587046, "Longitude": 74.350475, "pH": 8.2, "Turbidity": 0.3, "TDS": 223.0, "Conductivi": 345, "Hardness": 122, "Calcium": 25.6, "Magnesium": 13.9, "Alkalanity": 108, "Chloride": 12, "Bicarbonat": 108 }, "geometry": { "type": "Point", "coordinates": [ 74.350475, 31.587046 ] } },
{ "type": "Feature", "properties": { "Object_Id": 74, "Tubewells": "T/W Akram park Shahdbagh", "Latitude": 31.600905, "Longitude": 74.342316, "pH": 8.1, "Turbidity": 1.08, "TDS": 173.2, "Conductivi": 275, "Hardness": 118, "Calcium": 27.2, "Magnesium": 12.0, "Alkalanity": 178, "Chloride": 14, "Bicarbonat": 178 }, "geometry": { "type": "Point", "coordinates": [ 74.342316, 31.600905 ] } },
{ "type": "Feature", "properties": { "Object_Id": 75, "Tubewells": "Children Park", "Latitude": 31.600121, "Longitude": 74.33849, "pH": 7.9, "Turbidity": 0.0, "TDS": 183.3, "Conductivi": 291, "Hardness": 136, "Calcium": 24.0, "Magnesium": 18.2, "Alkalanity": 150, "Chloride": 21, "Bicarbonat": 150 }, "geometry": { "type": "Point", "coordinates": [ 74.33849, 31.600121 ] } },
{ "type": "Feature", "properties": { "Object_Id": 76, "Tubewells": "Elahi Bakhsh Park", "Latitude": 31.586906, "Longitude": 74.335539, "pH": 7.8, "Turbidity": 0.0, "TDS": 505.2, "Conductivi": 802, "Hardness": 290, "Calcium": 64.0, "Magnesium": 31.2, "Alkalanity": 14, "Chloride": 242, "Bicarbonat": 242 }, "geometry": { "type": "Point", "coordinates": [ 74.335539, 31.586906 ] } },
{ "type": "Feature", "properties": { "Object_Id": 77, "Tubewells": "Nabi Bakhsh Park", "Latitude": 31.599114, "Longitude": 74.335197, "pH": 8.0, "Turbidity": 1.17, "TDS": 274.6, "Conductivi": 436, "Hardness": 206, "Calcium": 48.0, "Magnesium": 20.6, "Alkalanity": 206, "Chloride": 24, "Bicarbonat": 206 }, "geometry": { "type": "Point", "coordinates": [ 74.335197, 31.599114 ] } }
]
}
